[{"OBJECT_NAME":"STARLINK-37137","OBJECT_ID":"2026-063E","EPOCH":"2026-04-20T14:11:57.382368","MEAN_MOTION":15.75260532,"ECCENTRICITY":0.00024393,"INCLINATION":97.2853,"RA_OF_ASC_NODE":252.3762,"ARG_OF_PERICENTER":11.3253,"MEAN_ANOMALY":348.8067,"EPHEMERIS_TYPE":0,"CLASSIFICATION_TYPE":"U","NORAD_CAT_ID":68384,"ELEMENT_SET_NO":999,"REV_AT_EPOCH":423,"BSTAR":0.0014769435,"MEAN_MOTION_DOT":0.00226818,"MEAN_MOTION_DDOT":0},{"OBJECT_NAME":"STARLINK-37128","OBJECT_ID":"2026-063F","EPOCH":"2026-04-21T20:00:01.999008","MEAN_MOTION":15.75194715,"ECCENTRICITY":6.05e-5,"INCLINATION":97.2854,"RA_OF_ASC_NODE":253.779,"ARG_OF_PERICENTER":109.4567,"MEAN_ANOMALY":321.2804,"EPHEMERIS_TYPE":0,"CLASSIFICATION_TYPE":"U","NORAD_CAT_ID":68385,"ELEMENT_SET_NO":999,"REV_AT_EPOCH":535,"BSTAR":-0.00011269,"MEAN_MOTION_DOT":-0.00016907,"MEAN_MOTION_DDOT":0},{"OBJECT_NAME":"STARLINK-37198","OBJECT_ID":"2026-063G","EPOCH":"2026-04-20T13:49:05.232864","MEAN_MOTION":15.75254158,"ECCENTRICITY":0.00015685,"INCLINATION":97.2862,"RA_OF_ASC_NODE":252.3978,"ARG_OF_PERICENTER":50.0933,"MEAN_ANOMALY":310.0469,"EPHEMERIS_TYPE":0,"CLASSIFICATION_TYPE":"U","NORAD_CAT_ID":68386,"ELEMENT_SET_NO":999,"REV_AT_EPOCH":423,"BSTAR":0.0013800514,"MEAN_MOTION_DOT":0.00211479,"MEAN_MOTION_DDOT":0},{"OBJECT_NAME":"STARLINK-37223","OBJECT_ID":"2026-063H","EPOCH":"2026-04-21T20:00:01.999008","MEAN_MOTION":15.75182197,"ECCENTRICITY":0.0001253,"INCLINATION":97.2856,"RA_OF_ASC_NODE":253.785,"ARG_OF_PERICENTER":96.3748,"MEAN_ANOMALY":346.3761,"EPHEMERIS_TYPE":0,"CLASSIFICATION_TYPE":"U","NORAD_CAT_ID":68387,"ELEMENT_SET_NO":999,"REV_AT_EPOCH":539,"BSTAR":3.5551e-5,"MEAN_MOTION_DOT":5.174e-5,"MEAN_MOTION_DDOT":0},{"OBJECT_NAME":"STARLINK-37203","OBJECT_ID":"2026-063J","EPOCH":"2026-04-19T20:22:39.732672","MEAN_MOTION":15.80940298,"ECCENTRICITY":9.591e-5,"INCLINATION":97.2841,"RA_OF_ASC_NODE":251.7032,"ARG_OF_PERICENTER":8.2437,"MEAN_ANOMALY":351.8847,"EPHEMERIS_TYPE":0,"CLASSIFICATION_TYPE":"U","NORAD_CAT_ID":68388,"ELEMENT_SET_NO":999,"REV_AT_EPOCH":412,"BSTAR":0.0022117856,"MEAN_MOTION_DOT":0.00448612,"MEAN_MOTION_DDOT":0},{"OBJECT_NAME":"STARLINK-37197","OBJECT_ID":"2026-063K","EPOCH":"2026-04-20T14:02:48.484032","MEAN_MOTION":15.7523979,"ECCENTRICITY":0.00029038,"INCLINATION":97.2855,"RA_OF_ASC_NODE":252.3841,"ARG_OF_PERICENTER":18.6488,"MEAN_ANOMALY":341.4883,"EPHEMERIS_TYPE":0,"CLASSIFICATION_TYPE":"U","NORAD_CAT_ID":68389,"ELEMENT_SET_NO":999,"REV_AT_EPOCH":423,"BSTAR":0.0012856937,"MEAN_MOTION_DOT":0.00196561,"MEAN_MOTION_DDOT":0},{"OBJECT_NAME":"STARLINK-37193","OBJECT_ID":"2026-063L","EPOCH":"2026-04-20T15:45:59.691168","MEAN_MOTION":15.75262811,"ECCENTRICITY":0.00023492,"INCLINATION":97.2859,"RA_OF_ASC_NODE":252.7459,"ARG_OF_PERICENTER":92.3987,"MEAN_ANOMALY":267.7547,"EPHEMERIS_TYPE":0,"CLASSIFICATION_TYPE":"U","NORAD_CAT_ID":68390,"ELEMENT_SET_NO":999,"REV_AT_EPOCH":426,"BSTAR":0.001642303,"MEAN_MOTION_DOT":0.00253031,"MEAN_MOTION_DDOT":0},{"OBJECT_NAME":"STARLINK-37216","OBJECT_ID":"2026-063M","EPOCH":"2026-04-20T08:51:16.435008","MEAN_MOTION":15.75215149,"ECCENTRICITY":0.00013163,"INCLINATION":97.286,"RA_OF_ASC_NODE":252.2209,"ARG_OF_PERICENTER":59.8177,"MEAN_ANOMALY":300.3218,"EPHEMERIS_TYPE":0,"CLASSIFICATION_TYPE":"U","NORAD_CAT_ID":68391,"ELEMENT_SET_NO":999,"REV_AT_EPOCH":420,"BSTAR":0.0011202887,"MEAN_MOTION_DOT":0.00170532,"MEAN_MOTION_DDOT":0},{"OBJECT_NAME":"STARLINK-37215","OBJECT_ID":"2026-063N","EPOCH":"2026-04-21T20:00:01.999008","MEAN_MOTION":15.7520625,"ECCENTRICITY":0.0001314,"INCLINATION":97.2859,"RA_OF_ASC_NODE":253.7748,"ARG_OF_PERICENTER":90.5425,"MEAN_ANOMALY":328.1904,"EPHEMERIS_TYPE":0,"CLASSIFICATION_TYPE":"U","NORAD_CAT_ID":68392,"ELEMENT_SET_NO":999,"REV_AT_EPOCH":540,"BSTAR":9.3491e-5,"MEAN_MOTION_DOT":0.00013847,"MEAN_MOTION_DDOT":0},{"OBJECT_NAME":"STARLINK-37184","OBJECT_ID":"2026-063P","EPOCH":"2026-04-20T12:59:59.945856","MEAN_MOTION":15.80537113,"ECCENTRICITY":0.00012977,"INCLINATION":97.284,"RA_OF_ASC_NODE":252.4449,"ARG_OF_PERICENTER":52.2629,"MEAN_ANOMALY":307.8757,"EPHEMERIS_TYPE":0,"CLASSIFICATION_TYPE":"U","NORAD_CAT_ID":68393,"ELEMENT_SET_NO":999,"REV_AT_EPOCH":423,"BSTAR":-0.0014191443,"MEAN_MOTION_DOT":-0.0026068,"MEAN_MOTION_DDOT":0},{"OBJECT_NAME":"STARLINK-37157","OBJECT_ID":"2026-063Q","EPOCH":"2026-04-20T15:23:06.548928","MEAN_MOTION":15.75225513,"ECCENTRICITY":0.00014889,"INCLINATION":97.2864,"RA_OF_ASC_NODE":252.4617,"ARG_OF_PERICENTER":95.7417,"MEAN_ANOMALY":264.4018,"EPHEMERIS_TYPE":0,"CLASSIFICATION_TYPE":"U","NORAD_CAT_ID":68394,"ELEMENT_SET_NO":999,"REV_AT_EPOCH":424,"BSTAR":0.0010474767,"MEAN_MOTION_DOT":0.00159301,"MEAN_MOTION_DDOT":0},{"OBJECT_NAME":"STARLINK-37172","OBJECT_ID":"2026-063R","EPOCH":"2026-04-20T15:11:25.156320","MEAN_MOTION":15.75292543,"ECCENTRICITY":0.00016011,"INCLINATION":97.2864,"RA_OF_ASC_NODE":252.4732,"ARG_OF_PERICENTER":96.658,"MEAN_ANOMALY":263.4868,"EPHEMERIS_TYPE":0,"CLASSIFICATION_TYPE":"U","NORAD_CAT_ID":68395,"ELEMENT_SET_NO":999,"REV_AT_EPOCH":424,"BSTAR":0.001904242,"MEAN_MOTION_DOT":0.00295249,"MEAN_MOTION_DDOT":0},{"OBJECT_NAME":"STARLINK-37190","OBJECT_ID":"2026-063S","EPOCH":"2026-04-19T15:41:37.814496","MEAN_MOTION":15.80878781,"ECCENTRICITY":0.00020188,"INCLINATION":97.2846,"RA_OF_ASC_NODE":251.5079,"ARG_OF_PERICENTER":103.0075,"MEAN_ANOMALY":257.1419,"EPHEMERIS_TYPE":0,"CLASSIFICATION_TYPE":"U","NORAD_CAT_ID":68396,"ELEMENT_SET_NO":999,"REV_AT_EPOCH":409,"BSTAR":0.0015725638,"MEAN_MOTION_DOT":0.0031304,"MEAN_MOTION_DDOT":0},{"OBJECT_NAME":"STARLINK-37194","OBJECT_ID":"2026-063T","EPOCH":"2026-04-21T20:00:01.999008","MEAN_MOTION":15.75207107,"ECCENTRICITY":0.0001456,"INCLINATION":97.2858,"RA_OF_ASC_NODE":253.7892,"ARG_OF_PERICENTER":117.3286,"MEAN_ANOMALY":337.4034,"EPHEMERIS_TYPE":0,"CLASSIFICATION_TYPE":"U","NORAD_CAT_ID":68397,"ELEMENT_SET_NO":999,"REV_AT_EPOCH":540,"BSTAR":1.6348e-5,"MEAN_MOTION_DOT":2.311e-5,"MEAN_MOTION_DDOT":0},{"OBJECT_NAME":"STARLINK-37220","OBJECT_ID":"2026-063U","EPOCH":"2026-04-20T00:00:02.999808","MEAN_MOTION":15.75293295,"ECCENTRICITY":0.00015632,"INCLINATION":97.286,"RA_OF_ASC_NODE":251.8413,"ARG_OF_PERICENTER":73.7098,"MEAN_ANOMALY":15.8879,"EPHEMERIS_TYPE":0,"CLASSIFICATION_TYPE":"U","NORAD_CAT_ID":68398,"ELEMENT_SET_NO":999,"REV_AT_EPOCH":510,"BSTAR":-0.0017482716,"MEAN_MOTION_DOT":-0.00254439,"MEAN_MOTION_DDOT":0},{"OBJECT_NAME":"STARLINK-37187","OBJECT_ID":"2026-063V","EPOCH":"2026-04-20T15:56:50.724672","MEAN_MOTION":15.80921362,"ECCENTRICITY":0.00029273,"INCLINATION":97.2847,"RA_OF_ASC_NODE":252.5835,"ARG_OF_PERICENTER":110.9639,"MEAN_ANOMALY":249.1943,"EPHEMERIS_TYPE":0,"CLASSIFICATION_TYPE":"U","NORAD_CAT_ID":68399,"ELEMENT_SET_NO":999,"REV_AT_EPOCH":425,"BSTAR":0.0010977735,"MEAN_MOTION_DOT":0.00216498,"MEAN_MOTION_DDOT":0},{"OBJECT_NAME":"STARLINK-36235","OBJECT_ID":"2026-063W","EPOCH":"2026-04-21T20:00:01.999008","MEAN_MOTION":15.75183159,"ECCENTRICITY":0.0001596,"INCLINATION":97.2856,"RA_OF_ASC_NODE":253.7989,"ARG_OF_PERICENTER":87.5567,"MEAN_ANOMALY":31.1909,"EPHEMERIS_TYPE":0,"CLASSIFICATION_TYPE":"U","NORAD_CAT_ID":68400,"ELEMENT_SET_NO":999,"REV_AT_EPOCH":540,"BSTAR":0.00013561,"MEAN_MOTION_DOT":0.00020139,"MEAN_MOTION_DDOT":0},{"OBJECT_NAME":"STARLINK-37175","OBJECT_ID":"2026-063X","EPOCH":"2026-04-20T01:22:30.423648","MEAN_MOTION":15.75226332,"ECCENTRICITY":0.00010803,"INCLINATION":97.2864,"RA_OF_ASC_NODE":251.8781,"ARG_OF_PERICENTER":66.594,"MEAN_ANOMALY":293.5439,"EPHEMERIS_TYPE":0,"CLASSIFICATION_TYPE":"U","NORAD_CAT_ID":68401,"ELEMENT_SET_NO":999,"REV_AT_EPOCH":415,"BSTAR":0.00079969416,"MEAN_MOTION_DOT":0.00121043,"MEAN_MOTION_DDOT":0},{"OBJECT_NAME":"STARLINK-36360","OBJECT_ID":"2026-063Y","EPOCH":"2026-04-21T20:00:01.999008","MEAN_MOTION":15.75191698,"ECCENTRICITY":0.0001646,"INCLINATION":97.2857,"RA_OF_ASC_NODE":253.7938,"ARG_OF_PERICENTER":118.9865,"MEAN_ANOMALY":347.7581,"EPHEMERIS_TYPE":0,"CLASSIFICATION_TYPE":"U","NORAD_CAT_ID":68402,"ELEMENT_SET_NO":999,"REV_AT_EPOCH":540,"BSTAR":-7.0341e-6,"MEAN_MOTION_DOT":-1.179e-5,"MEAN_MOTION_DDOT":0},{"OBJECT_NAME":"STARLINK-37218","OBJECT_ID":"2026-063Z","EPOCH":"2026-04-19T14:00:44.187264","MEAN_MOTION":15.80862608,"ECCENTRICITY":6.574e-5,"INCLINATION":97.2853,"RA_OF_ASC_NODE":251.4519,"ARG_OF_PERICENTER":9.0322,"MEAN_ANOMALY":351.0958,"EPHEMERIS_TYPE":0,"CLASSIFICATION_TYPE":"U","NORAD_CAT_ID":68403,"ELEMENT_SET_NO":999,"REV_AT_EPOCH":408,"BSTAR":0.001465621,"MEAN_MOTION_DOT":0.00290782,"MEAN_MOTION_DDOT":0},{"OBJECT_NAME":"STARLINK-37188","OBJECT_ID":"2026-063AA","EPOCH":"2026-04-20T15:51:26.160480","MEAN_MOTION":15.80878687,"ECCENTRICITY":0.00015947,"INCLINATION":97.2849,"RA_OF_ASC_NODE":252.5889,"ARG_OF_PERICENTER":79.6931,"MEAN_ANOMALY":280.4517,"EPHEMERIS_TYPE":0,"CLASSIFICATION_TYPE":"U","NORAD_CAT_ID":68404,"ELEMENT_SET_NO":999,"REV_AT_EPOCH":425,"BSTAR":0.00089317593,"MEAN_MOTION_DOT":0.00174918,"MEAN_MOTION_DDOT":0},{"OBJECT_NAME":"SHIYAN-33","OBJECT_ID":"2026-064A","EPOCH":"2026-04-21T15:21:48.205728","MEAN_MOTION":15.23380447,"ECCENTRICITY":0.0015296,"INCLINATION":97.4635,"RA_OF_ASC_NODE":187.4532,"ARG_OF_PERICENTER":141.0991,"MEAN_ANOMALY":219.135,"EPHEMERIS_TYPE":0,"CLASSIFICATION_TYPE":"U","NORAD_CAT_ID":68405,"ELEMENT_SET_NO":999,"REV_AT_EPOCH":388,"BSTAR":0.00017663,"MEAN_MOTION_DOT":4.141e-5,"MEAN_MOTION_DDOT":0},{"OBJECT_NAME":"LPNTSAT-001 (IOD-1)","OBJECT_ID":"2026-065A","EPOCH":"2026-04-20T14:41:26.400768","MEAN_MOTION":15.18344825,"ECCENTRICITY":0.00164047,"INCLINATION":97.4094,"RA_OF_ASC_NODE":352.3251,"ARG_OF_PERICENTER":199.4886,"MEAN_ANOMALY":160.5723,"EPHEMERIS_TYPE":0,"CLASSIFICATION_TYPE":"U","NORAD_CAT_ID":68408,"ELEMENT_SET_NO":999,"REV_AT_EPOCH":352,"BSTAR":9.411972e-5,"MEAN_MOTION_DOT":1.871e-5,"MEAN_MOTION_DDOT":0}]
